[{"OBJECT_NAME":"METEOSAT-11 (MSG-4)","OBJECT_ID":"2015-034A","EPOCH":"2026-04-04T04:16:28.399872","MEAN_MOTION":1.00275817,"ECCENTRICITY":0.00017463,"INCLINATION":3.0159,"RA_OF_ASC_NODE":71.4966,"ARG_OF_PERICENTER":284.9354,"MEAN_ANOMALY":269.4795,"EPHEMERIS_TYPE":0,"CLASSIFICATION_TYPE":"U","NORAD_CAT_ID":40732,"ELEMENT_SET_NO":999,"REV_AT_EPOCH":647,"BSTAR":0,"MEAN_MOTION_DOT":6.3e-7,"MEAN_MOTION_DDOT":0},{"OBJECT_NAME":"ELEKTRO-L 2","OBJECT_ID":"2015-074A","EPOCH":"2026-04-03T17:53:29.675040","MEAN_MOTION":1.00272274,"ECCENTRICITY":0.00026549,"INCLINATION":6.5084,"RA_OF_ASC_NODE":71.4277,"ARG_OF_PERICENTER":257.1473,"MEAN_ANOMALY":117.3865,"EPHEMERIS_TYPE":0,"CLASSIFICATION_TYPE":"U","NORAD_CAT_ID":41105,"ELEMENT_SET_NO":999,"REV_AT_EPOCH":3776,"BSTAR":0,"MEAN_MOTION_DOT":-1.16e-6,"MEAN_MOTION_DDOT":0},{"OBJECT_NAME":"INSAT-3DR","OBJECT_ID":"2016-054A","EPOCH":"2026-04-03T21:44:10.979232","MEAN_MOTION":1.00273287,"ECCENTRICITY":0.00121309,"INCLINATION":0.1268,"RA_OF_ASC_NODE":86.9448,"ARG_OF_PERICENTER":196.4528,"MEAN_ANOMALY":308.8774,"EPHEMERIS_TYPE":0,"CLASSIFICATION_TYPE":"U","NORAD_CAT_ID":41752,"ELEMENT_SET_NO":999,"REV_AT_EPOCH":3507,"BSTAR":0,"MEAN_MOTION_DOT":-7.9e-7,"MEAN_MOTION_DDOT":0},{"OBJECT_NAME":"HIMAWARI-9","OBJECT_ID":"2016-064A","EPOCH":"2026-04-04T06:00:38.398752","MEAN_MOTION":1.00271363,"ECCENTRICITY":0.00012207,"INCLINATION":0.0463,"RA_OF_ASC_NODE":110.7186,"ARG_OF_PERICENTER":284.736,"MEAN_ANOMALY":28.0475,"EPHEMERIS_TYPE":0,"CLASSIFICATION_TYPE":"U","NORAD_CAT_ID":41836,"ELEMENT_SET_NO":999,"REV_AT_EPOCH":3446,"BSTAR":0,"MEAN_MOTION_DOT":-2.75e-6,"MEAN_MOTION_DDOT":0},{"OBJECT_NAME":"GOES 16","OBJECT_ID":"2016-071A","EPOCH":"2026-04-04T05:26:36.673440","MEAN_MOTION":1.00272227,"ECCENTRICITY":0.00018719,"INCLINATION":0.1738,"RA_OF_ASC_NODE":85.299,"ARG_OF_PERICENTER":245.6791,"MEAN_ANOMALY":198.5207,"EPHEMERIS_TYPE":0,"CLASSIFICATION_TYPE":"U","NORAD_CAT_ID":41866,"ELEMENT_SET_NO":999,"REV_AT_EPOCH":3436,"BSTAR":0,"MEAN_MOTION_DOT":-9.1e-7,"MEAN_MOTION_DDOT":0},{"OBJECT_NAME":"FENGYUN 4A","OBJECT_ID":"2016-077A","EPOCH":"2026-04-03T23:41:02.319360","MEAN_MOTION":1.0027908,"ECCENTRICITY":0.0007947,"INCLINATION":2.1353,"RA_OF_ASC_NODE":81.0352,"ARG_OF_PERICENTER":139.8278,"MEAN_ANOMALY":90.3181,"EPHEMERIS_TYPE":0,"CLASSIFICATION_TYPE":"U","NORAD_CAT_ID":41882,"ELEMENT_SET_NO":999,"REV_AT_EPOCH":3418,"BSTAR":0,"MEAN_MOTION_DOT":-3.57e-6,"MEAN_MOTION_DDOT":0},{"OBJECT_NAME":"CYGFM05","OBJECT_ID":"2016-078A","EPOCH":"2026-04-04T05:22:05.200320","MEAN_MOTION":15.53530394,"ECCENTRICITY":0.00069074,"INCLINATION":34.959,"RA_OF_ASC_NODE":29.1768,"ARG_OF_PERICENTER":187.337,"MEAN_ANOMALY":172.7254,"EPHEMERIS_TYPE":0,"CLASSIFICATION_TYPE":"U","NORAD_CAT_ID":41884,"ELEMENT_SET_NO":999,"REV_AT_EPOCH":51723,"BSTAR":0.0005621204,"MEAN_MOTION_DOT":0.00037054,"MEAN_MOTION_DDOT":0},{"OBJECT_NAME":"CYGFM04","OBJECT_ID":"2016-078B","EPOCH":"2026-04-04T03:32:28.943808","MEAN_MOTION":15.57540286,"ECCENTRICITY":0.00069478,"INCLINATION":34.9347,"RA_OF_ASC_NODE":0.7614,"ARG_OF_PERICENTER":228.576,"MEAN_ANOMALY":131.4368,"EPHEMERIS_TYPE":0,"CLASSIFICATION_TYPE":"U","NORAD_CAT_ID":41885,"ELEMENT_SET_NO":999,"REV_AT_EPOCH":51743,"BSTAR":0.00057691155,"MEAN_MOTION_DOT":0.00044167,"MEAN_MOTION_DDOT":0},{"OBJECT_NAME":"CYGFM02","OBJECT_ID":"2016-078C","EPOCH":"2026-04-04T03:21:43.575552","MEAN_MOTION":15.5974976,"ECCENTRICITY":0.00080628,"INCLINATION":34.9426,"RA_OF_ASC_NODE":357.1594,"ARG_OF_PERICENTER":226.5555,"MEAN_ANOMALY":133.45,"EPHEMERIS_TYPE":0,"CLASSIFICATION_TYPE":"U","NORAD_CAT_ID":41886,"ELEMENT_SET_NO":999,"REV_AT_EPOCH":51758,"BSTAR":0.00066720965,"MEAN_MOTION_DOT":0.00055659,"MEAN_MOTION_DDOT":0},{"OBJECT_NAME":"CYGFM01","OBJECT_ID":"2016-078D","EPOCH":"2026-04-04T04:16:15.680064","MEAN_MOTION":15.54101148,"ECCENTRICITY":0.00063895,"INCLINATION":34.9421,"RA_OF_ASC_NODE":31.096,"ARG_OF_PERICENTER":180.4742,"MEAN_ANOMALY":179.5976,"EPHEMERIS_TYPE":0,"CLASSIFICATION_TYPE":"U","NORAD_CAT_ID":41887,"ELEMENT_SET_NO":999,"REV_AT_EPOCH":51717,"BSTAR":0.00056903035,"MEAN_MOTION_DOT":0.00038303,"MEAN_MOTION_DDOT":0},{"OBJECT_NAME":"CYGFM08","OBJECT_ID":"2016-078E","EPOCH":"2026-04-04T04:31:55.559136","MEAN_MOTION":15.56320106,"ECCENTRICITY":0.00084542,"INCLINATION":34.9453,"RA_OF_ASC_NODE":12.3713,"ARG_OF_PERICENTER":207.7862,"MEAN_ANOMALY":152.2411,"EPHEMERIS_TYPE":0,"CLASSIFICATION_TYPE":"U","NORAD_CAT_ID":41888,"ELEMENT_SET_NO":999,"REV_AT_EPOCH":51742,"BSTAR":0.0005899789,"MEAN_MOTION_DOT":0.00043166,"MEAN_MOTION_DDOT":0},{"OBJECT_NAME":"CYGFM07","OBJECT_ID":"2016-078G","EPOCH":"2026-04-04T03:39:07.697952","MEAN_MOTION":15.56392362,"ECCENTRICITY":0.00073743,"INCLINATION":34.9469,"RA_OF_ASC_NODE":1.0131,"ARG_OF_PERICENTER":226.8984,"MEAN_ANOMALY":133.1124,"EPHEMERIS_TYPE":0,"CLASSIFICATION_TYPE":"U","NORAD_CAT_ID":41890,"ELEMENT_SET_NO":999,"REV_AT_EPOCH":51744,"BSTAR":0.00057004199,"MEAN_MOTION_DOT":0.00041795,"MEAN_MOTION_DDOT":0},{"OBJECT_NAME":"CYGFM03","OBJECT_ID":"2016-078H","EPOCH":"2026-04-04T02:57:25.066656","MEAN_MOTION":15.56395818,"ECCENTRICITY":0.00063267,"INCLINATION":34.9425,"RA_OF_ASC_NODE":3.17,"ARG_OF_PERICENTER":216.8352,"MEAN_ANOMALY":143.1938,"EPHEMERIS_TYPE":0,"CLASSIFICATION_TYPE":"U","NORAD_CAT_ID":41891,"ELEMENT_SET_NO":999,"REV_AT_EPOCH":51741,"BSTAR":0.0006296852,"MEAN_MOTION_DOT":0.0004619,"MEAN_MOTION_DDOT":0},{"OBJECT_NAME":"FENGYUN 3D","OBJECT_ID":"2017-072A","EPOCH":"2026-04-04T05:15:10.619424","MEAN_MOTION":14.19723029,"ECCENTRICITY":4.134e-5,"INCLINATION":99.0071,"RA_OF_ASC_NODE":67.3292,"ARG_OF_PERICENTER":270.423,"MEAN_ANOMALY":89.6898,"EPHEMERIS_TYPE":0,"CLASSIFICATION_TYPE":"U","NORAD_CAT_ID":43010,"ELEMENT_SET_NO":999,"REV_AT_EPOCH":43449,"BSTAR":9.9546474e-5,"MEAN_MOTION_DOT":1.64e-6,"MEAN_MOTION_DDOT":0},{"OBJECT_NAME":"NOAA 20 (JPSS-1)","OBJECT_ID":"2017-073A","EPOCH":"2026-04-04T06:33:49.220640","MEAN_MOTION":14.19543143,"ECCENTRICITY":0.00020333,"INCLINATION":98.7724,"RA_OF_ASC_NODE":34.411,"ARG_OF_PERICENTER":103.1408,"MEAN_ANOMALY":256.9995,"EPHEMERIS_TYPE":0,"CLASSIFICATION_TYPE":"U","NORAD_CAT_ID":43013,"ELEMENT_SET_NO":999,"REV_AT_EPOCH":43398,"BSTAR":8.6006958e-5,"MEAN_MOTION_DOT":1.37e-6,"MEAN_MOTION_DDOT":0},{"OBJECT_NAME":"GOES 17","OBJECT_ID":"2018-022A","EPOCH":"2026-04-04T05:30:58.754016","MEAN_MOTION":1.00271726,"ECCENTRICITY":0.0001221,"INCLINATION":0.748,"RA_OF_ASC_NODE":86.8133,"ARG_OF_PERICENTER":256.8969,"MEAN_ANOMALY":202.0833,"EPHEMERIS_TYPE":0,"CLASSIFICATION_TYPE":"U","NORAD_CAT_ID":43226,"ELEMENT_SET_NO":999,"REV_AT_EPOCH":2968,"BSTAR":0,"MEAN_MOTION_DOT":-1.83e-6,"MEAN_MOTION_DDOT":0},{"OBJECT_NAME":"FENGYUN 2H","OBJECT_ID":"2018-050A","EPOCH":"2026-04-04T02:53:36.348576","MEAN_MOTION":1.00270557,"ECCENTRICITY":0.00012372,"INCLINATION":2.8403,"RA_OF_ASC_NODE":79.9578,"ARG_OF_PERICENTER":172.2028,"MEAN_ANOMALY":62.72,"EPHEMERIS_TYPE":0,"CLASSIFICATION_TYPE":"U","NORAD_CAT_ID":43491,"ELEMENT_SET_NO":999,"REV_AT_EPOCH":2869,"BSTAR":0,"MEAN_MOTION_DOT":-1.26e-6,"MEAN_MOTION_DDOT":0}]
