METEOSAT-11 (MSG-4)     
1 40732U 15034A   26094.17810648  .00000063  00000+0  00000+0 0  9992
2 40732   3.0159  71.4966 0001746 284.9354 269.4795  1.00275817  6472
ELEKTRO-L 2             
1 41105U 15074A   26093.74548235 -.00000116  00000+0  00000+0 0  9993
2 41105   6.5084  71.4277 0002654 257.1473 117.3865  1.00272274 37769
INSAT-3DR               
1 41752U 16054A   26093.90568263 -.00000079  00000+0  00000+0 0  9999
2 41752   0.1268  86.9448 0012130 196.4528 308.8774  1.00273287 35071
HIMAWARI-9              
1 41836U 16064A   26094.25044443 -.00000275  00000+0  00000+0 0  9999
2 41836   0.0463 110.7186 0001220 284.7360  28.0475  1.00271363 34462
GOES 16                 
1 41866U 16071A   26094.22681335 -.00000091  00000+0  00000+0 0  9990
2 41866   0.1738  85.2990 0001871 245.6791 198.5207  1.00272227 34361
FENGYUN 4A              
1 41882U 16077A   26093.98683240 -.00000357  00000+0  00000+0 0  9998
2 41882   2.1353  81.0352 0007947 139.8278  90.3181  1.00279080 34188
CYGFM05                 
1 41884U 16078A   26094.22367130  .00037054  00000+0  56212-3 0  9999
2 41884  34.9590  29.1768 0006907 187.3370 172.7254 15.53530394517235
CYGFM04                 
1 41885U 16078B   26094.14755722  .00044167  00000+0  57691-3 0  9994
2 41885  34.9347   0.7614 0006947 228.5760 131.4368 15.57540286517431
CYGFM02                 
1 41886U 16078C   26094.14008768  .00055659  00000+0  66721-3 0  9998
2 41886  34.9426 357.1594 0008062 226.5555 133.4500 15.59749760517582
CYGFM01                 
1 41887U 16078D   26094.17795926  .00038303  00000+0  56903-3 0  9999
2 41887  34.9421  31.0960 0006389 180.4742 179.5976 15.54101148517179
CYGFM08                 
1 41888U 16078E   26094.18883749  .00043166  00000+0  58998-3 0  9991
2 41888  34.9453  12.3713 0008454 207.7862 152.2411 15.56320106517423
CYGFM07                 
1 41890U 16078G   26094.15217243  .00041795  00000+0  57004-3 0  9994
2 41890  34.9469   1.0131 0007374 226.8984 133.1124 15.56392362517443
CYGFM03                 
1 41891U 16078H   26094.12320679  .00046190  00000+0  62969-3 0  9990
2 41891  34.9425   3.1700 0006326 216.8352 143.1938 15.56395818517415
FENGYUN 3D              
1 43010U 17072A   26094.21887291  .00000164  00000+0  99546-4 0  9991
2 43010  99.0071  67.3292 0000413 270.4230  89.6898 14.19723029434491
NOAA 20 (JPSS-1)        
1 43013U 17073A   26094.27348635  .00000137  00000+0  86007-4 0  9993
2 43013  98.7724  34.4110 0002033 103.1408 256.9995 14.19543143433985
GOES 17                 
1 43226U 18022A   26094.22984669 -.00000183  00000+0  00000+0 0  9998
2 43226   0.7480  86.8133 0001221 256.8969 202.0833  1.00271726 29687
FENGYUN 2H              
1 43491U 18050A   26094.12055959 -.00000126  00000+0  00000+0 0  9990
2 43491   2.8403  79.9578 0001237 172.2028  62.7200  1.00270557 28699
